[{"OBJECT_NAME":"KUIPER-00213","OBJECT_ID":"2026-030P","EPOCH":"2026-03-03T11:27:21.433824","MEAN_MOTION":15.3246604,"ECCENTRICITY":0.0014926,"INCLINATION":51.879,"RA_OF_ASC_NODE":249.4203,"ARG_OF_PERICENTER":46.5925,"MEAN_ANOMALY":313.63,"EPHEMERIS_TYPE":0,"CLASSIFICATION_TYPE":"U","NORAD_CAT_ID":67777,"ELEMENT_SET_NO":999,"REV_AT_EPOCH":413,"BSTAR":0.00067164,"MEAN_MOTION_DOT":0.00021123,"MEAN_MOTION_DDOT":0},{"OBJECT_NAME":"KUIPER-00214","OBJECT_ID":"2026-030Q","EPOCH":"2026-03-03T12:02:17.525472","MEAN_MOTION":15.36494152,"ECCENTRICITY":0.0001037,"INCLINATION":51.8839,"RA_OF_ASC_NODE":248.8521,"ARG_OF_PERICENTER":198.4167,"MEAN_ANOMALY":161.6782,"EPHEMERIS_TYPE":0,"CLASSIFICATION_TYPE":"U","NORAD_CAT_ID":67778,"ELEMENT_SET_NO":999,"REV_AT_EPOCH":414,"BSTAR":0.00069834,"MEAN_MOTION_DOT":0.00024951,"MEAN_MOTION_DDOT":0},{"OBJECT_NAME":"KUIPER-00215","OBJECT_ID":"2026-030R","EPOCH":"2026-03-03T11:08:32.902944","MEAN_MOTION":15.34154836,"ECCENTRICITY":0.0009818,"INCLINATION":51.8824,"RA_OF_ASC_NODE":249.3454,"ARG_OF_PERICENTER":42.6383,"MEAN_ANOMALY":317.5363,"EPHEMERIS_TYPE":0,"CLASSIFICATION_TYPE":"U","NORAD_CAT_ID":67779,"ELEMENT_SET_NO":999,"REV_AT_EPOCH":413,"BSTAR":0.00073705,"MEAN_MOTION_DOT":0.00024468,"MEAN_MOTION_DDOT":0},{"OBJECT_NAME":"KUIPER-00218","OBJECT_ID":"2026-030S","EPOCH":"2026-03-03T12:29:50.464608","MEAN_MOTION":15.34875694,"ECCENTRICITY":0.0006323,"INCLINATION":51.8824,"RA_OF_ASC_NODE":248.9743,"ARG_OF_PERICENTER":34.4413,"MEAN_ANOMALY":325.6982,"EPHEMERIS_TYPE":0,"CLASSIFICATION_TYPE":"U","NORAD_CAT_ID":67780,"ELEMENT_SET_NO":999,"REV_AT_EPOCH":414,"BSTAR":0.00071305,"MEAN_MOTION_DOT":0.00024192,"MEAN_MOTION_DDOT":0},{"OBJECT_NAME":"KUIPER-00220","OBJECT_ID":"2026-030T","EPOCH":"2026-03-03T12:37:53.189184","MEAN_MOTION":15.34463038,"ECCENTRICITY":0.0008012,"INCLINATION":51.8798,"RA_OF_ASC_NODE":249.005,"ARG_OF_PERICENTER":40.5408,"MEAN_ANOMALY":319.6173,"EPHEMERIS_TYPE":0,"CLASSIFICATION_TYPE":"U","NORAD_CAT_ID":67781,"ELEMENT_SET_NO":999,"REV_AT_EPOCH":414,"BSTAR":0.0010494,"MEAN_MOTION_DOT":0.0003538,"MEAN_MOTION_DDOT":0},{"OBJECT_NAME":"KUIPER-00222","OBJECT_ID":"2026-030U","EPOCH":"2026-03-03T11:32:16.044864","MEAN_MOTION":15.32266823,"ECCENTRICITY":0.0017328,"INCLINATION":51.8792,"RA_OF_ASC_NODE":249.4426,"ARG_OF_PERICENTER":37.705,"MEAN_ANOMALY":322.5146,"EPHEMERIS_TYPE":0,"CLASSIFICATION_TYPE":"U","NORAD_CAT_ID":67782,"ELEMENT_SET_NO":999,"REV_AT_EPOCH":413,"BSTAR":0.0017935,"MEAN_MOTION_DOT":0.00057017,"MEAN_MOTION_DDOT":0},{"OBJECT_NAME":"KUIPER-00223","OBJECT_ID":"2026-030V","EPOCH":"2026-03-03T11:12:55.869120","MEAN_MOTION":15.33947754,"ECCENTRICITY":0.0012154,"INCLINATION":51.8812,"RA_OF_ASC_NODE":249.362,"ARG_OF_PERICENTER":42.7326,"MEAN_ANOMALY":317.4602,"EPHEMERIS_TYPE":0,"CLASSIFICATION_TYPE":"U","NORAD_CAT_ID":67783,"ELEMENT_SET_NO":999,"REV_AT_EPOCH":413,"BSTAR":0.00070615,"MEAN_MOTION_DOT":0.00023285,"MEAN_MOTION_DDOT":0},{"OBJECT_NAME":"KUIPER-00225","OBJECT_ID":"2026-030W","EPOCH":"2026-03-03T12:18:13.894848","MEAN_MOTION":15.35595886,"ECCENTRICITY":0.0003836,"INCLINATION":51.8805,"RA_OF_ASC_NODE":248.9174,"ARG_OF_PERICENTER":23.6192,"MEAN_ANOMALY":336.4969,"EPHEMERIS_TYPE":0,"CLASSIFICATION_TYPE":"U","NORAD_CAT_ID":67784,"ELEMENT_SET_NO":999,"REV_AT_EPOCH":414,"BSTAR":0.00070952,"MEAN_MOTION_DOT":0.0002463,"MEAN_MOTION_DDOT":0},{"OBJECT_NAME":"KUIPER-00226","OBJECT_ID":"2026-030X","EPOCH":"2026-03-03T10:12:33.971616","MEAN_MOTION":15.31367077,"ECCENTRICITY":0.0018485,"INCLINATION":51.8805,"RA_OF_ASC_NODE":249.8189,"ARG_OF_PERICENTER":55.597,"MEAN_ANOMALY":304.6758,"EPHEMERIS_TYPE":0,"CLASSIFICATION_TYPE":"U","NORAD_CAT_ID":67785,"ELEMENT_SET_NO":999,"REV_AT_EPOCH":412,"BSTAR":0.00080181,"MEAN_MOTION_DOT":0.00024481,"MEAN_MOTION_DDOT":0},{"OBJECT_NAME":"KUIPER-00259","OBJECT_ID":"2026-030Y","EPOCH":"2026-03-03T12:32:35.481696","MEAN_MOTION":15.34784132,"ECCENTRICITY":0.0007811,"INCLINATION":51.88,"RA_OF_ASC_NODE":248.9813,"ARG_OF_PERICENTER":33.9567,"MEAN_ANOMALY":326.1917,"EPHEMERIS_TYPE":0,"CLASSIFICATION_TYPE":"U","NORAD_CAT_ID":67786,"ELEMENT_SET_NO":999,"REV_AT_EPOCH":414,"BSTAR":0.0010077,"MEAN_MOTION_DOT":0.00034303,"MEAN_MOTION_DDOT":0},{"OBJECT_NAME":"KUIPER-00260","OBJECT_ID":"2026-030Z","EPOCH":"2026-03-03T12:08:11.546016","MEAN_MOTION":15.36153782,"ECCENTRICITY":8.31e-5,"INCLINATION":51.8794,"RA_OF_ASC_NODE":248.8712,"ARG_OF_PERICENTER":66.9733,"MEAN_ANOMALY":293.1341,"EPHEMERIS_TYPE":0,"CLASSIFICATION_TYPE":"U","NORAD_CAT_ID":67787,"ELEMENT_SET_NO":999,"REV_AT_EPOCH":405,"BSTAR":0.00071753,"MEAN_MOTION_DOT":0.00025367,"MEAN_MOTION_DDOT":0},{"OBJECT_NAME":"KUIPER-00262","OBJECT_ID":"2026-030AA","EPOCH":"2026-03-03T12:03:41.048352","MEAN_MOTION":15.36466735,"ECCENTRICITY":6.33e-5,"INCLINATION":51.8807,"RA_OF_ASC_NODE":248.8536,"ARG_OF_PERICENTER":150.8244,"MEAN_ANOMALY":209.2778,"EPHEMERIS_TYPE":0,"CLASSIFICATION_TYPE":"U","NORAD_CAT_ID":67788,"ELEMENT_SET_NO":999,"REV_AT_EPOCH":414,"BSTAR":0.0007406,"MEAN_MOTION_DOT":0.00026466,"MEAN_MOTION_DDOT":0},{"OBJECT_NAME":"KUIPER-00266","OBJECT_ID":"2026-030AB","EPOCH":"2026-03-03T10:18:30.972960","MEAN_MOTION":15.30975633,"ECCENTRICITY":0.0022599,"INCLINATION":51.8811,"RA_OF_ASC_NODE":249.8434,"ARG_OF_PERICENTER":53.8564,"MEAN_ANOMALY":306.4507,"EPHEMERIS_TYPE":0,"CLASSIFICATION_TYPE":"U","NORAD_CAT_ID":67789,"ELEMENT_SET_NO":999,"REV_AT_EPOCH":412,"BSTAR":-0.00034243,"MEAN_MOTION_DOT":-0.00010847,"MEAN_MOTION_DDOT":0},{"OBJECT_NAME":"KUIPER-00268","OBJECT_ID":"2026-030AC","EPOCH":"2026-03-03T12:14:47.270112","MEAN_MOTION":15.35710358,"ECCENTRICITY":0.0002079,"INCLINATION":51.8841,"RA_OF_ASC_NODE":248.9088,"ARG_OF_PERICENTER":35.0737,"MEAN_ANOMALY":325.0385,"EPHEMERIS_TYPE":0,"CLASSIFICATION_TYPE":"U","NORAD_CAT_ID":67790,"ELEMENT_SET_NO":999,"REV_AT_EPOCH":414,"BSTAR":0.0010218,"MEAN_MOTION_DOT":0.00035822,"MEAN_MOTION_DDOT":0},{"OBJECT_NAME":"KUIPER-00270","OBJECT_ID":"2026-030AD","EPOCH":"2026-03-03T11:05:50.419104","MEAN_MOTION":15.34359093,"ECCENTRICITY":0.0009687,"INCLINATION":51.8797,"RA_OF_ASC_NODE":249.3249,"ARG_OF_PERICENTER":40.6578,"MEAN_ANOMALY":319.5129,"EPHEMERIS_TYPE":0,"CLASSIFICATION_TYPE":"U","NORAD_CAT_ID":67791,"ELEMENT_SET_NO":999,"REV_AT_EPOCH":413,"BSTAR":0.00099986,"MEAN_MOTION_DOT":0.00033587,"MEAN_MOTION_DDOT":0},{"OBJECT_NAME":"KUIPER-00274","OBJECT_ID":"2026-030AE","EPOCH":"2026-03-03T11:38:00.566592","MEAN_MOTION":15.31617499,"ECCENTRICITY":0.0017479,"INCLINATION":51.8815,"RA_OF_ASC_NODE":249.4746,"ARG_OF_PERICENTER":50.6634,"MEAN_ANOMALY":309.5896,"EPHEMERIS_TYPE":0,"CLASSIFICATION_TYPE":"U","NORAD_CAT_ID":67792,"ELEMENT_SET_NO":999,"REV_AT_EPOCH":413,"BSTAR":0.0016615,"MEAN_MOTION_DOT":0.00051691,"MEAN_MOTION_DDOT":0},{"OBJECT_NAME":"KUIPER-00275","OBJECT_ID":"2026-030AF","EPOCH":"2026-03-03T12:35:59.829792","MEAN_MOTION":15.344348,"ECCENTRICITY":0.0008617,"INCLINATION":51.8831,"RA_OF_ASC_NODE":249.004,"ARG_OF_PERICENTER":37.461,"MEAN_ANOMALY":322.6974,"EPHEMERIS_TYPE":0,"CLASSIFICATION_TYPE":"U","NORAD_CAT_ID":67793,"ELEMENT_SET_NO":999,"REV_AT_EPOCH":414,"BSTAR":0.00095538,"MEAN_MOTION_DOT":0.00032138,"MEAN_MOTION_DDOT":0}]
